ONEWEB-0412             
1 50489U 21132W   23237.87447685 -.00000005  00000+0 -46626-4 0  9995
2 50489  87.9233 179.5471 0001502  92.3987 267.7317 13.18687466 86399
ONEWEB-0413             
1 50490U 21132X   23237.87870369  .00000094  00000+0  20631-3 0  9999
2 50490  87.9294 179.5192 0001748  87.7791 272.3541 13.18686101 86331
ONEWEB-0414             
1 50491U 21132Y   23237.86498284  .00000117  00000+0  26492-3 0  9998
2 50491  87.9290 179.5124 0001668  77.3993 282.7326 13.18683761 86361
ONEWEB-0417             
1 50492U 21132Z   23237.87238981  .00000144  00000+0  33204-3 0  9995
2 50492  87.9233 179.5611 0002070  68.4545 291.6807 13.18683158 86343
ONEWEB-0418             
1 50493U 21132AA  23237.88609057  .00000052  00000+0  10039-3 0  9992
2 50493  87.9293 179.5066 0002057  60.3205 299.8131 13.18686445 86402
ONEWEB-0419             
1 50494U 21132AB  23237.89979365  .00000144  00000+0  33233-3 0  9999
2 50494  87.9288 179.5300 0002373  71.7804 288.3587 13.18685632 86326
ONEWEB-0420             
1 50495U 21132AC  23237.86606137  .00000123  00000+0  28012-3 0  9997
2 50495  87.9287 179.5447 0002454  85.2988 274.8425 13.18692619 86314
ONEWEB-0421             
1 50496U 21132AD  23237.85973919 -.00000126  00000+0 -35239-3 0  9996
2 50496  87.9252 179.5547 0001725  73.8428 286.2894 13.18686526 86351
